NORAD_CAT_ID,OBJECT_NAME,OBJECT_TYPE,EPOCH,MEAN_MOTION,ECCENTRICITY,INCLINATION,RA_OF_ASC_NODE,ARG_OF_PERICENTER,MEAN_ANOMALY,BSTAR,MEAN_MOTION_DOT,MEAN_MOTION_DDOT,TLE_LINE0,TLE_LINE1,TLE_LINE2,SEMIMAJOR_AXIS,PERIOD,APOGEE,PERIGEE,DECAYED
53749.0,STARLINK-4680,PAYLOAD,2023-09-06 17:40:30,15.08833431,0.0001341,53.2186,51.6726,95.4693,264.6453,0.00022355,3.271e-05,0.0,0 STARLINK-4680,1 53749U 22107BB  23249.73646138  .00003271  00000-0  22355-3 0  9991,2 53749  53.2186  51.6726 0001341  95.4693 264.6453 15.08833431 55687,6917.9,95.438,540.693,538.838,0.0
53749.0,STARLINK-4680,PAYLOAD,2023-09-06 20:51:16,15.08842324,0.0001399,53.2175,51.0777,94.1704,265.9448,0.0001356,1.871e-05,0.0,0 STARLINK-4680,1 53749U 22107BB  23249.86893647  .00001871  00000-0  13560-3 0  9996,2 53749  53.2175  51.0777 0001399  94.1704 265.9448 15.08842324 56485,6917.873,95.437,540.706,538.77,0.0
53749.0,STARLINK-4680,PAYLOAD,2023-09-06 22:26:38,15.08846172,0.0001323,53.2182,50.7803,93.8654,266.249,0.00015979,2.256e-05,0.0,0 STARLINK-4680,1 53749U 22107BB  23249.93517344  .00002256  00000-0  15979-3 0  9995,2 53749  53.2182  50.7803 0001323  93.8654 266.2490 15.08846172 55717,6917.862,95.437,540.642,538.811,0.0
53749.0,STARLINK-4680,PAYLOAD,2023-09-07 11:09:44,15.08841426,0.0001467,53.217,48.4009,91.2896,268.8264,2.0466e-05,3.8e-07,0.0,0 STARLINK-4680,1 53749U 22107BB  23250.46510076  .00000038  00000-0  20466-4 0  9994,2 53749  53.2170  48.4009 0001467  91.2896 268.8264 15.08841426 55797,6917.876,95.437,540.756,538.726,0.0
53749.0,STARLINK-4680,PAYLOAD,2023-09-08 14:11:17,15.08843257,0.0001283,53.2187,43.3461,90.5149,269.599,2.3946e-05,9.3e-07,0.0,0 STARLINK-4680,1 53749U 22107BB  23251.59118048  .00000093  00000-0  23946-4 0  9999,2 53749  53.2187  43.3461 0001283  90.5149 269.5990 15.08843257 56744,6917.87,95.437,540.623,538.848,0.0
53749.0,STARLINK-4680,PAYLOAD,2023-09-08 17:22:03,15.08851194,0.0001206,53.22,42.7529,92.1359,267.9771,-8.9853e-06,-4.31e-06,0.0,0 STARLINK-4680,1 53749U 22107BB  23251.72365664 -.00000431  00000-0 -89853-5 0  9990,2 53749  53.2200  42.7529 0001206  92.1359 267.9771 15.08851194 55987,6917.846,95.437,540.545,538.877,0.0
53749.0,STARLINK-4680,PAYLOAD,2023-09-08 20:32:50,15.08851087,0.0001183,53.2191,42.1573,88.4176,271.6952,3.3593e-05,2.47e-06,0.0,0 STARLINK-4680,1 53749U 22107BB  23251.85613514  .00000247  00000-0  33593-4 0  9996,2 53749  53.2191  42.1573 0001183  88.4176 271.6952 15.08851087 56781,6917.847,95.437,540.53,538.893,0.0
53749.0,STARLINK-4680,PAYLOAD,2023-09-09 10:51:19,15.08831391,0.0001236,53.2189,39.481,84.5089,275.6044,6.3343e-05,7.2e-06,0.0,0 STARLINK-4680,1 53749U 22107BB  23252.45230846  .00000720  00000-0  63343-4 0  9998,2 53749  53.2189  39.4810 0001236  84.5089 275.6044 15.08831391 56096,6917.907,95.438,540.627,538.917,0.0
53749.0,STARLINK-4680,PAYLOAD,2023-09-09 14:02:05,15.08838372,0.0001278,53.219,38.8854,88.1105,272.0034,7.412e-05,8.92e-06,0.0,0 STARLINK-4680,1 53749U 22107BB  23252.58478435  .00000892  00000-0  74120-4 0  9995,2 53749  53.2190  38.8854 0001278  88.1105 272.0034 15.08838372 56898,6917.885,95.438,540.634,538.866,0.0
53749.0,STARLINK-4680,PAYLOAD,2023-09-09 17:12:51,15.08842099,0.0001302,53.219,38.2907,85.6442,274.4699,0.00010271,1.347e-05,0.0,0 STARLINK-4680,1 53749U 22107BB  23252.71726183  .00001347  00000-0  10271-3 0  9998,2 53749  53.2190  38.2907 0001302  85.6442 274.4699 15.08842099 56136,6917.874,95.437,540.64,538.838,0.0
53749.0,STARLINK-4680,PAYLOAD,2023-09-10 13:52:52,15.0884062,0.0001407,53.2196,34.4252,83.0751,277.0401,8.8092e-05,1.114e-05,0.0,0 STARLINK-4680,1 53749U 22107BB  23253.57838450  .00001114  00000-0  88092-4 0  9993,2 53749  53.2196  34.4252 0001407  83.0751 277.0401 15.08840620 57043,6917.878,95.438,540.717,538.77,0.0
53749.0,STARLINK-4680,PAYLOAD,2023-09-10 18:39:01,15.08847368,0.0001379,53.2186,33.5334,79.8583,280.2565,0.00011998,1.622e-05,0.0,0 STARLINK-4680,1 53749U 22107BB  23253.77709902  .00001622  00000-0  11998-3 0  9998,2 53749  53.2186  33.5334 0001379  79.8583 280.2565 15.08847368 56296,6917.858,95.437,540.677,538.769,0.0
53749.0,STARLINK-4680,PAYLOAD,2023-09-11 13:43:39,15.08840822,0.0001384,53.2186,29.9643,85.7724,274.3426,6.6346e-05,7.68e-06,0.0,0 STARLINK-4680,1 53749U 22107BB  23254.57198388  .00000768  00000-0  66346-4 0  9995,2 53749  53.2186  29.9643 0001384  85.7724 274.3426 15.08840822 57195,6917.878,95.438,540.7,538.785,0.0
53749.0,STARLINK-4680,PAYLOAD,2023-09-11 15:19:02,15.08843294,0.0001356,53.2186,29.6672,85.9644,274.1503,9.6387e-05,1.247e-05,0.0,0 STARLINK-4680,1 53749U 22107BB  23254.63822241  .00001247  00000-0  96387-4 0  9995,2 53749  53.2186  29.6672 0001356  85.9644 274.1503 15.08843294 56421,6917.87,95.437,540.673,538.797,0.0
53749.0,STARLINK-4680,PAYLOAD,2023-09-11 21:40:34,15.08851206,0.0001349,53.2192,28.4728,91.8374,268.2773,0.0002109,3.071e-05,0.0,0 STARLINK-4680,1 53749U 22107BB  23254.90317710  .00003071  00000-0  21090-3 0  9990,2 53749  53.2192  28.4728 0001349  91.8374 268.2773 15.08851206 56464,6917.846,95.437,540.644,538.778,0.0
53749.0,STARLINK-4680,PAYLOAD,2023-09-12 13:34:26,15.08841895,0.000156,53.2208,25.4993,97.6421,262.4748,8.9071e-05,1.13e-05,0.0,0 STARLINK-4680,1 53749U 22107BB  23255.56558196  .00001130  00000-0  89071-4 0  9996,2 53749  53.2208  25.4993 0001560  97.6421 262.4748 15.08841895 57344,6917.875,95.437,540.819,538.66,0.0
53749.0,STARLINK-4680,PAYLOAD,2023-09-12 16:45:12,15.08847445,0.0002033,53.2192,24.9083,71.9867,288.1347,0.00013268,1.824e-05,0.0,0 STARLINK-4680,1 53749U 22107BB  23255.69806195  .00001824  00000-0  13268-3 0  9999,2 53749  53.2192  24.9083 0002033  71.9867 288.1347 15.08847445 56587,6917.858,95.437,541.129,538.316,0.0
53749.0,STARLINK-4680,PAYLOAD,2023-09-13 13:25:12,15.08853111,0.000153,53.2178,21.0442,94.1128,266.0039,0.00025156,3.719e-05,0.0,0 STARLINK-4680,1 53749U 22107BB  23256.55917381  .00003719  00000-0  25156-3 0  9999,2 53749  53.2178  21.0442 0001530  94.1128 266.0039 15.08853111 57497,6917.84,95.437,540.764,538.647,0.0
53749.0,STARLINK-4680,PAYLOAD,2023-09-13 18:11:21,15.08860575,0.0001437,53.2193,20.1499,104.3367,255.7785,0.00022545,3.304e-05,0.0,0 STARLINK-4680,1 53749U 22107BB  23256.75788740  .00003304  00000-0  22545-3 0  9995,2 53749  53.2193  20.1499 0001437 104.3367 255.7785 15.08860575 56743,6917.818,95.436,540.677,538.688,0.0
53749.0,STARLINK-4680,PAYLOAD,2023-09-14 13:16:01,15.08826538,0.0001547,53.2188,16.585,86.1004,274.0165,-0.00018089,-3.165e-05,0.0,0 STARLINK-4680,1 53749U 22107BB  23257.55279089 -.00003165  00000-0 -18089-3 0  9990,2 53749  53.2188  16.5850 0001547  86.1004 274.0165 15.08826538 57641,6917.922,95.438,540.857,538.716,0.0
53749.0,STARLINK-4680,PAYLOAD,2023-09-14 18:02:10,15.08826339,0.0001318,53.2185,15.6916,89.9414,270.1729,-0.00015276,-2.717e-05,0.0,0 STARLINK-4680,1 53749U 22107BB  23257.75151168 -.00002717  00000-0 -15276-3 0  9996,2 53749  53.2185  15.6916 0001318  89.9414 270.1729 15.08826339 56891,6917.922,95.438,540.699,538.875,0.0
53749.0,STARLINK-4680,PAYLOAD,2023-09-15 06:45:15,15.08838232,0.0001252,53.2193,13.3126,82.647,277.4664,1.5762e-05,-3.7e-07,0.0,0 STARLINK-4680,1 53749U 22107BB  23258.28142909 -.00000037  00000-0  15762-4 0  9991,2 53749  53.2193  13.3126 0001252  82.6470 277.4664 15.08838232 56979,6917.886,95.438,540.617,538.885,0.0
53749.0,STARLINK-4680,PAYLOAD,2023-09-15 13:06:47,15.08848321,0.000134,53.2185,12.1245,68.847,291.2665,0.00020065,2.908e-05,0.0,0 STARLINK-4680,1 53749U 22107BB  23258.54638451  .00002908  00000-0  20065-3 0  9991,2 53749  53.2185  12.1245 0001340  68.8470 291.2665 15.08848321 57799,6917.855,95.437,540.647,538.793,0.0
53749.0,STARLINK-4680,PAYLOAD,2023-09-15 16:17:34,15.08855896,0.0001366,53.2193,11.5292,74.5585,285.5558,0.00072939,0.00011344,0.0,0 STARLINK-4680,1 53749U 22107BB  23258.67886599  .00011344  00000-0  72939-3 0  9994,2 53749  53.2193  11.5292 0001366  74.5585 285.5558 15.08855896 57031,6917.832,95.437,540.642,538.752,0.0
53749.0,STARLINK-4680,PAYLOAD,2023-09-16 00:14:30,15.08843848,0.0001295,53.2192,10.0394,69.5281,290.585,0.00073074,0.00011362,0.0,0 STARLINK-4680,1 53749U 22107BB  23259.01006975  .00011362  00000-0  73074-3 0  9996,2 53749  53.2192  10.0394 0001295  69.5281 290.5850 15.08843848 57085,6917.869,95.437,540.629,538.838,0.0
53749.0,STARLINK-4680,PAYLOAD,2023-09-16 12:57:34,15.08839863,0.0001497,53.2192,7.6648,97.4802,262.636,-0.00011094,-2.053e-05,0.0,0 STARLINK-4680,1 53749U 22107BB  23259.53998818 -.00002053  00000-0 -11094-3 0  9992,2 53749  53.2192   7.6648 0001497  97.4802 262.6360 15.08839863 57945,6917.881,95.438,540.781,538.71,0.0
53749.0,STARLINK-4680,PAYLOAD,2023-09-16 16:08:21,15.08844102,0.0001431,53.2198,7.0716,89.7784,270.3373,0.00016992,2.418e-05,0.0,0 STARLINK-4680,1 53749U 22107BB  23259.67246940  .00002418  00000-0  16992-3 0  9994,2 53749  53.2198   7.0716 0001431  89.7784 270.3373 15.08844102 57180,6917.868,95.437,540.723,538.743,0.0
53749.0,STARLINK-4680,PAYLOAD,2023-09-17 12:48:22,15.08848272,0.0001397,53.219,3.2032,82.1713,277.9437,0.00025581,3.787e-05,0.0,0 STARLINK-4680,1 53749U 22107BB  23260.53358824  .00003787  00000-0  25581-3 0  9990,2 53749  53.2190   3.2032 0001397  82.1713 277.9437 15.08848272 58098,6917.855,95.437,540.687,538.754,0.0
53749.0,STARLINK-4680,PAYLOAD,2023-09-17 23:56:04,15.08845024,0.0001517,53.2187,1.1218,92.0227,268.0939,0.00032644,4.912e-05,0.0,0 STARLINK-4680,1 53749U 22107BB  23260.99727008  .00004912  00000-0  32644-3 0  9993,2 53749  53.2187   1.1218 0001517  92.0227 268.0939 15.08845024 57382,6917.865,95.437,540.779,538.681,0.0
53749.0,STARLINK-4680,PAYLOAD,2023-09-18 12:39:09,15.08844277,0.0001649,53.2193,358.7442,90.9606,269.1575,0.00027532,4.097e-05,0.0,0 STARLINK-4680,1 53749U 22107BB  23261.52719042  .00004097  00000-0  27532-3 0  9996,2 53749  53.2193 358.7442 0001649  90.9606 269.1575 15.08844277 58246,6917.867,95.437,540.873,538.592,0.0
